{
    "links": {
        "self": "http://www.neowsapp.com/rest/v1/neo/3587871?api_key=iIulBulltgU6a56xZRHN4H3l9WmuAYTsLGpBGhQ2"
    },
    "id": "3587871",
    "neo_reference_id": "3587871",
    "name": "(2011 VG9)",
    "designation": "2011 VG9",
    "nasa_jpl_url": "http://ssd.jpl.nasa.gov/sbdb.cgi?sstr=3587871",
    "absolute_magnitude_h": 22.1,
    "estimated_diameter": {
        "kilometers": {
            "estimated_diameter_min": 0.1010543415,
            "estimated_diameter_max": 0.2259643771
        },
        "meters": {
            "estimated_diameter_min": 101.054341542,
            "estimated_diameter_max": 225.9643771094
        },
        "miles": {
            "estimated_diameter_min": 0.0627922373,
            "estimated_diameter_max": 0.140407711
        },
        "feet": {
            "estimated_diameter_min": 331.5431259047,
            "estimated_diameter_max": 741.3529669956
        }
    },
    "is_potentially_hazardous_asteroid": false,
    "close_approach_data": [
        {
            "close_approach_date": "2011-10-26",
            "close_approach_date_full": "2011-Oct-26 07:14",
            "epoch_date_close_approach": 1319613240000,
            "relative_velocity": {
                "kilometers_per_second": "21.5090582851",
                "kilometers_per_hour": "77432.6098263456",
                "miles_per_hour": "48113.6124779312"
            },
            "miss_distance": {
                "astronomical": "0.0996356712",
                "lunar": "38.7582760968",
                "kilometers": "14905284.187540344",
                "miles": "9261714.1227469872"
            },
            "orbiting_body": "Earth"
        }
    ],
    "orbital_data": {
        "orbit_id": "15",
        "orbit_determination_date": "2020-05-12 06:39:37",
        "first_observation_date": "2011-11-15",
        "last_observation_date": "2011-12-02",
        "data_arc_in_days": 17,
        "observations_used": 61,
        "orbit_uncertainty": "8",
        "minimum_orbit_intersection": ".00692565",
        "jupiter_tisserand_invariant": "3.120",
        "epoch_osculation": "2455889.5",
        "eccentricity": ".7741756627711057",
        "semi_major_axis": "2.280349353198709",
        "inclination": "1.264243525370482",
        "ascending_node_longitude": "236.3315213299199",
        "orbital_period": "1257.767900604996",
        "perihelion_distance": ".5149583813364362",
        "perihelion_argument": "65.66479198749376",
        "aphelion_distance": "4.045740325060982",
        "perihelion_time": "2455815.822020843162",
        "mean_anomaly": "21.08820910734278",
        "mean_motion": ".2862213289326571",
        "equinox": "J2000",
        "orbit_class": {
            "orbit_class_type": "APO",
            "orbit_class_description": "Near-Earth asteroid orbits which cross the Earth’s orbit similar to that of 1862 Apollo",
            "orbit_class_range": "a (semi-major axis) > 1.0 AU; q (perihelion) < 1.017 AU"
        }
    },
    "is_sentry_object": false
}